GALAXY 3C (G-3C)        
1 27445U 02030A   26087.33517012 -.00000169  00000+0  00000+0 0  9997
2 27445   3.5233  79.0943 0001198  26.0425 106.4195  1.00270958 45681
